{"type":"FeatureCollection", "features": [
{"type":"Feature","geometry":{"type":"Polygon","coordinates":[[[-72.1570322,-39.4828668],[-72.1614954,-39.4803163],[-72.1651861,-39.4728465],[-72.1707651,-39.4740391],[-72.1693918,-39.4787926],[-72.171838,-39.4797864],[-72.1662161,-39.4863115],[-72.1696493,-39.4868746],[-72.166774,-39.4911801],[-72.1565172,-39.4947569],[-72.1529123,-39.4992772],[-72.1484491,-39.4986149],[-72.1438143,-39.4884147],[-72.1499082,-39.4870898],[-72.1516248,-39.485765],[-72.1541998,-39.4847548],[-72.1504232,-39.4836286],[-72.1478054,-39.4786932],[-72.1523115,-39.477037],[-72.1570322,-39.4828668]]]},"properties":{"name":"zona_2000_centro","styleUrl":"#poly-000000-1200-77-nodesc","fill-opacity":0.30196078431372547,"fill":"#000000","stroke-opacity":1,"stroke":"#000000","stroke-width":1.2}},
{"type":"Feature","geometry":{"type":"Polygon","coordinates":[[[-72.166774,-39.4911801],[-72.170168,-39.4867688],[-72.1669923,-39.4860402],[-72.1725713,-39.4798131],[-72.1705972,-39.4790181],[-72.1723138,-39.4775606],[-72.1845017,-39.4784881],[-72.181326,-39.4848478],[-72.1714555,-39.4910744],[-72.166774,-39.4911801]]]},"properties":{"name":"zona_3000_afunalhue","styleUrl":"#poly-FFEA00-1200-77-nodesc","fill-opacity":0.30196078431372547,"fill":"#ffea00","stroke-opacity":1,"stroke":"#ffea00","stroke-width":1.2}},
{"type":"Feature","geometry":{"type":"Polygon","coordinates":[[[-72.1438842,-39.487948],[-72.1339278,-39.4838409],[-72.1280484,-39.4795018],[-72.147532,-39.4786405],[-72.150064,-39.4837416],[-72.1534114,-39.4846359],[-72.1494203,-39.4870206],[-72.1438842,-39.487948]]]},"properties":{"name":"zona_3000_depeuma","styleUrl":"#poly-7CB342-1200-117-nodesc","fill-opacity":0.4588235294117647,"fill":"#7cb342","stroke-opacity":1,"stroke":"#7cb342","stroke-width":1.2}},
{"type":"Feature","geometry":{"type":"Polygon","coordinates":[[[-72.1468217,-39.4741241],[-72.14665,-39.4721696],[-72.1536023,-39.4710101],[-72.1561772,-39.476708],[-72.1526152,-39.4768405],[-72.1474654,-39.4783642],[-72.1468217,-39.4741241]]]},"properties":{"name":"zona_2500_elcarmen","styleUrl":"#poly-01579B-1200-117-nodesc","fill-opacity":0.4588235294117647,"fill":"#01579b","stroke-opacity":1,"stroke":"#01579b","stroke-width":1.2}},
{"type":"Feature","geometry":{"type":"Polygon","coordinates":[[[-72.1570322,-39.4828668],[-72.1536917,-39.4781671],[-72.1526618,-39.4770409],[-72.1565241,-39.4768421],[-72.1541638,-39.4710118],[-72.1581978,-39.4707136],[-72.1625752,-39.4769746],[-72.1610732,-39.4801215],[-72.1570322,-39.4828668]]]},"properties":{"name":"zona_3000_melilahuen","styleUrl":"#poly-E65100-1200-77-nodesc","fill-opacity":0.30196078431372547,"fill":"#e65100","stroke-opacity":1,"stroke":"#e65100","stroke-width":1.2}},
{"type":"Feature","geometry":{"type":"Polygon","coordinates":[[[-72.209576,-39.4396373],[-72.2044262,-39.4455365],[-72.1915945,-39.4363892],[-72.1952423,-39.4315498],[-72.209576,-39.4396373]]]},"properties":{"name":"zona_6500_domos","styleUrl":"#poly-000000-1200-77-nodesc","fill-opacity":0.30196078431372547,"fill":"#000000","stroke-opacity":1,"stroke":"#000000","stroke-width":1.2}}
]}